GOES 19                 
1 60133U 24119A   26065.06754785 -.00000254  00000+0  00000+0 0  9991
2 60133   0.0063  87.2880 0001074 300.4838  85.1354  1.00271600  5935
FENGYUN 3H              
1 65815U 25219A   26065.23141390  .00000139  00000+0  86053-4 0  9994
2 65815  98.6683   8.0515 0001360  63.1547 296.9768 14.19931534 22777
