[{"OBJECT_NAME":"GOES 19","OBJECT_ID":"2024-119A","EPOCH":"2026-03-06T01:37:16.134240","MEAN_MOTION":1.002716,"ECCENTRICITY":0.00010742,"INCLINATION":0.0063,"RA_OF_ASC_NODE":87.288,"ARG_OF_PERICENTER":300.4838,"MEAN_ANOMALY":85.1354,"EPHEMERIS_TYPE":0,"CLASSIFICATION_TYPE":"U","NORAD_CAT_ID":60133,"ELEMENT_SET_NO":999,"REV_AT_EPOCH":593,"BSTAR":0,"MEAN_MOTION_DOT":-2.54e-6,"MEAN_MOTION_DDOT":0},{"OBJECT_NAME":"FENGYUN 3H","OBJECT_ID":"2025-219A","EPOCH":"2026-03-06T05:33:14.160960","MEAN_MOTION":14.19931534,"ECCENTRICITY":0.00013607,"INCLINATION":98.6683,"RA_OF_ASC_NODE":8.0515,"ARG_OF_PERICENTER":63.1547,"MEAN_ANOMALY":296.9768,"EPHEMERIS_TYPE":0,"CLASSIFICATION_TYPE":"U","NORAD_CAT_ID":65815,"ELEMENT_SET_NO":999,"REV_AT_EPOCH":2277,"BSTAR":8.6053055e-5,"MEAN_MOTION_DOT":1.39e-6,"MEAN_MOTION_DDOT":0}]
